CIC_OEM_VERS = 2.0
CREATION_DATE = 2025-03-05T13:48:56.076083
ORIGINATOR = ISAE-SUPAERO


META_START
OBJECT_NAME = RED1
OBJECT_ID = RED1
CENTER_NAME = Earth
REF_FRAME = EME2000
TIME_SYSTEM = UTC
START_TIME = 2025-03-05T13:48:26.000
USEABLE_START_TIME = 2025-03-05T13:48:26.000
USEABLE_STOP_TIME = 2025-03-05T23:58:56.000
STOP_TIME = 2025-03-05T23:58:56.000
INTERPOLATION = lagrange
INTERPOLATION_DEGREE = 5
META_STOP


60739 49706.0 68152.205 10766.614 628.61024 -0.37551365 2.364822 0.20833097
60739 49796.0 68118.07400000001 10979.395 647.3569100000001 -0.38295421 2.3636345999999997 0.2082613
60739 49886.0 68083.274 11192.068000000001 666.09721 -0.39039100000000004 2.362424 0.20818958
60739 49976.0 68047.804 11404.630000000001 684.83097 -0.39782396000000003 2.3611902000000002 0.20811582
60739 50066.0 68011.66500000001 11617.081 703.558 -0.405253 2.3599332 0.20804001
60739 50156.0 67974.85800000001 11829.418 722.27811 -0.41267806 2.358653 0.20796215
60739 50246.0 67937.383 12041.638 740.99113 -0.42009907 2.3573496 0.20788225
60739 50336.0 67899.241 12253.74 759.69686 -0.42751595 2.356023 0.20780031
60739 50426.0 67860.431 12465.721 778.39512 -0.43492862000000004 2.3546733 0.20771633
60739 50516.0 67820.954 12677.58 797.08573 -0.44233702 2.3533004 0.20763030000000002
60739 50606.0 67780.81 12889.315 815.76851 -0.44974108 2.3519044 0.20754223
60739 50696.0 67740.001 13100.922 834.4432800000001 -0.45714071 2.3504853 0.20745213
60739 50786.0 67698.525 13312.401 853.10984 -0.46453585 2.3490431 0.20735998
60739 50876.0 67656.384 13523.75 871.76801 -0.47192643 2.3475778000000003 0.20726580000000003
60739 50966.0 67613.57800000001 13734.965 890.41762 -0.47931236000000005 2.3460895 0.20716957
60739 51056.0 67570.10800000001 13946.045 909.0584699999999 -0.48669359 2.3445781 0.20707132
60739 51146.0 67525.974 14156.988000000001 927.69039 -0.49407003 2.3430436 0.20697102
60739 51236.0 67481.176 14367.792 946.3131999999999 -0.50144162 2.3414861 0.2068687
60739 51326.0 67435.714 14578.455 964.9267 -0.50880828 2.3399056000000003 0.20676434000000002
60739 51416.0 67389.59 14788.974 983.53072 -0.51616994 2.3383021 0.20665795
60739 51506.0 67342.804 14999.349 1002.1251 -0.52352652 2.3366756 0.20654952000000001
60739 51596.0 67295.356 15209.575 1020.7096 -0.5308779600000001 2.3350261 0.20643907
60739 51686.0 67247.246 15419.653 1039.284 -0.53822418 2.3333537 0.20632659
60739 51776.0 67198.475 15629.578 1057.8483 -0.54556512 2.3316584 0.20621208
60739 51866.0 67149.044 15839.35 1076.4022 -0.5529006900000001 2.3299402000000002 0.20609554
60739 51956.0 67098.954 16048.967 1094.9453999999998 -0.56023082 2.328199 0.20597698
60739 52046.0 67048.20300000001 16258.426 1113.4778999999999 -0.56755545 2.326435 0.20585639
60739 52136.0 66996.794 16467.725 1131.9995000000001 -0.57487451 2.3246481 0.20573378
60739 52226.0 66944.726 16676.862 1150.51 -0.58218791 2.3228383 0.20560915
60739 52316.0 66892.0 16885.835 1169.0091000000002 -0.58949559 2.3210058 0.20548249999999998
60739 52406.0 66838.617 17094.642 1187.4968000000001 -0.59679748 2.3191504 0.20535382000000002
60739 52496.0 66784.577 17303.281 1205.9727 -0.6040935 2.3172722 0.20522313
60739 52586.0 66729.88 17511.75 1224.4369 -0.61138358 2.3153713 0.20509042
60739 52676.0 66674.528 17720.047 1242.8889 -0.61866766 2.3134475 0.20495570000000002
60739 52766.0 66618.52 17928.170000000002 1261.3288 -0.62594566 2.3115011 0.20481896000000002
60739 52856.0 66561.85800000001 18136.117000000002 1279.7563 -0.6332175 2.3095319 0.20468021
60739 52946.0 66504.541 18343.885000000002 1298.1712 -0.64048312 2.3075401 0.20453944999999998
60739 53036.0 66446.571 18551.473 1316.5733 -0.64774245 2.3055255000000003 0.20439667
60739 53126.0 66387.948 18758.879 1334.9625 -0.6549954100000001 2.3034883 0.20425189000000002
60739 53216.0 66328.672 18966.101 1353.3386 -0.6622419300000001 2.3014285 0.20410509999999998
60739 53306.0 66268.744 19173.136 1371.7014 -0.66948194 2.299346 0.20395631
60739 53396.0 66208.16500000001 19379.982 1390.0507 -0.67671538 2.297241 0.20380551
60739 53486.0 66146.936 19586.638 1408.3863000000001 -0.68394216 2.2951133 0.20365270000000002
60739 53576.0 66085.056 19793.102 1426.7081 -0.69116222 2.2929632 0.20349789999999998
60739 53666.0 66022.527 19999.371 1445.0158999999999 -0.69837549 2.2907904 0.20334109
60739 53756.0 65959.349 20205.443 1463.3095 -0.7055819 2.2885952 0.20318229
60739 53846.0 65895.522 20411.317 1481.5886 -0.7127813700000001 2.2863775 0.20302149
60739 53936.0 65831.048 20616.991 1499.8533 -0.71997383 2.2841372 0.20285869
60739 54026.0 65765.927 20822.461 1518.1031 -0.72715922 2.2818746 0.2026939
60739 54116.0 65700.16 21027.727 1536.3381000000002 -0.73433746 2.2795895 0.20252712
60739 54206.0 65633.747 21232.787 1554.558 -0.7415084900000001 2.277282 0.20235835
60739 54296.0 65566.689 21437.638 1572.7626 -0.74867223 2.2749522000000004 0.20218758
60739 54386.0 65498.986000000004 21642.278000000002 1590.9517 -0.75582861 2.2725999000000003 0.20201484
60739 54476.0 65430.64 21846.705 1609.1252 -0.76297756 2.2702253999999997 0.20184010000000002
60739 54566.0 65361.65 22050.917 1627.2828000000002 -0.77011901 2.2678285000000002 0.20166338
60739 54656.0 65292.018000000004 22254.913 1645.4245 -0.7772529 2.2654093 0.20148468
60739 54746.0 65221.745 22458.69 1663.55 -0.78437914 2.2629679 0.201304
60739 54836.0 65150.83 22662.247 1681.6592 -0.79149768 2.2605041999999997 0.20112134
60739 54926.0 65079.276 22865.581000000002 1699.7518 -0.79860844 2.2580183000000003 0.20093671000000002
60739 55016.0 65007.081 23068.69 1717.8277 -0.80571135 2.2555103 0.20075010000000001
60739 55106.0 64934.248 23271.572 1735.8868 -0.81280634 2.25298 0.20056151
60739 55196.0 64860.776 23474.225000000002 1753.9287 -0.81989334 2.2504276 0.20037096000000001
60739 55286.0 64786.667 23676.648 1771.9535 -0.82697228 2.2478531 0.20017843
60739 55376.0 64711.921 23878.838 1789.9608 -0.8340431 2.2452565 0.19998394
60739 55466.0 64636.54 24080.794 1807.9505000000001 -0.8411057200000001 2.2426378000000002 0.19978748999999998
60739 55556.0 64560.523 24282.512 1825.9225000000001 -0.84816007 2.2399971 0.19958905999999998
60739 55646.0 64483.871 24483.992000000002 1843.8765 -0.85520609 2.2373344000000004 0.19938867999999998
60739 55736.0 64406.586 24685.232 1861.8124 -0.8622437000000001 2.2346497 0.19918634000000002
60739 55826.0 64328.668 24886.229 1879.73 -0.86927284 2.2319430000000002 0.19898204000000003
60739 55916.0 64250.117 25086.981 1897.6291 -0.8762934400000001 2.2292144 0.19877578
60739 56006.0 64170.935000000005 25287.487 1915.5096 -0.88330542 2.2264639 0.19856758
60739 56096.0 64091.122 25487.744 1933.3712 -0.89030872 2.2236915 0.19835740999999998
60739 56186.0 64010.68 25687.75 1951.2138 -0.89730327 2.2208972 0.1981453
60739 56276.0 63929.608 25887.505 1969.0373000000002 -0.90428901 2.2180811 0.19793125
60739 56366.0 63847.908 26087.004 1986.8414 -0.91126585 2.2152431999999997 0.19771524
60739 56456.0 63765.58 26286.248 2004.626 -0.91823374 2.2123836000000003 0.1974973
60739 56546.0 63682.626000000004 26485.233 2022.3908999999999 -0.92519261 2.2095021999999997 0.19727741000000001
60739 56636.0 63599.046 26683.958000000002 2040.1359 -0.93214238 2.2065991 0.19705558
60739 56726.0 63514.841 26882.420000000002 2057.8608 -0.9390829900000001 2.2036743000000003 0.19683182
60739 56816.0 63430.011 27080.618000000002 2075.5655 -0.94601437 2.2007278 0.19660612
60739 56906.0 63344.558000000005 27278.55 2093.2498 -0.95293646 2.1977597 0.19637849000000002
60739 56996.0 63258.483 27476.214 2110.9136000000003 -0.9598491800000001 2.19477 0.19614893
60739 57086.0 63171.786 27673.608 2128.5566000000003 -0.96675246 2.1917587 0.19591744
60739 57176.0 63084.468 27870.73 2146.1787000000004 -0.97364625 2.1887259 0.19568403
60739 57266.0 62996.53 28067.578 2163.7797 -0.98053046 2.1856716 0.19544869
60739 57356.0 62907.973 28264.151 2181.3594 -0.98740504 2.1825958 0.19521143000000002
60739 57446.0 62818.797 28460.445 2198.9177000000004 -0.99426991 2.1794986 0.19497225
60739 57536.0 62729.004 28656.46 2216.4543 -1.001125 2.1763799 0.19473116
60739 57626.0 62638.595 28852.193 2233.9692000000005 -1.0079703 2.1732397999999997 0.19448815
60739 57716.0 62547.57 29047.642 2251.4621 -1.0148056 2.1700784 0.19424323000000002
60739 57806.0 62455.93 29242.806 2268.9329 -1.021631 2.1668957 0.19399641
60739 57896.0 62363.677 29437.683 2286.3813999999998 -1.0284464 2.1636916 0.19374767
60739 57986.0 62270.81 29632.27 2303.8075 -1.0352516 2.1604663 0.19349703
60739 58076.0 62177.332 29826.566 2321.2108 -1.0420467000000002 2.1572198 0.19324449000000002
60739 58166.0 62083.242 30020.569 2338.5914 -1.0488315 2.1539520000000003 0.19299005
60739 58256.0 61988.542 30214.277000000002 2355.949 -1.055606 2.1506631 0.19273372
60739 58346.0 61893.233 30407.688000000002 2373.2834 -1.0623701 2.1473530999999997 0.19247548
60739 58436.0 61797.316 30600.8 2390.5945 -1.0691238 2.1440219000000003 0.19221536
60739 58526.0 61700.791000000005 30793.611 2407.8821000000003 -1.075867 2.1406697 0.19195335
60739 58616.0 61603.66 30986.12 2425.1461 -1.0825996 2.1372964000000003 0.19168945
60739 58706.0 61505.924 31178.324 2442.3862000000004 -1.0893216000000001 2.1339021 0.19142367
60739 58796.0 61407.583 31370.221 2459.6023 -1.0960329 2.1304868999999997 0.19115600000000002
60739 58886.0 61308.638 31561.811 2476.7942000000003 -1.1027334000000002 2.1270507 0.19088646
60739 58976.0 61209.091 31753.09 2493.9618 -1.109423 2.1235936000000004 0.19061503999999999
60739 59066.0 61108.942 31944.057 2511.1049 -1.1161018 2.1201156 0.19034175
60739 59156.0 61008.193 32134.71 2528.2232000000004 -1.1227696 2.1166167999999996 0.19006659
60739 59246.0 60906.844000000005 32325.047000000002 2545.3168 -1.1294263000000002 2.1130972000000003 0.18978955
60739 59336.0 60804.897000000004 32515.067 2562.3853 -1.136072 2.1095569000000003 0.18951066
60739 59426.0 60702.352 32704.767 2579.4286 -1.1427065 2.1059958 0.18922989999999998
